1 48047C 21025F   21276.84303655  .00001791  00000+0  49114-2 0  2761
2 48047  87.8824 301.5297 0002204  79.8243 344.1777 13.13469216    10
1 48047C 21025F   21277.23823332 -.00002478  00000+0 -67926-2 0  2771
2 48047  87.8823 301.4506 0002196  79.4781  52.1431 13.13474777    15
1 48047C 21025F   21277.61329119  .00000007  00000+0  17970-4 0  2777
2 48047  87.8823 301.3755 0002190  79.3590  24.7120 13.13474582    15
1 48047C 21025F   21277.61329119  .00000007  00000+0  17992-4 0  2771
2 48047  87.8823 301.3755 0002190  79.3590  24.7120 13.13474582    15
1 48047C 21025F   21277.91473794  .00003312  00000+0  90791-2 0  2771
2 48047  87.8822 301.3152 0002181  78.8817   9.7743 13.13470043    13
1 48047C 21025F   21278.28910138 -.00001350  00000+0 -36999-2 0  2783
2 48047  87.8821 301.2402 0002165  78.7258 339.0996 13.13474522    14
1 48047C 21025F   21278.60727266 -.00000472  00000+0 -12944-2 0  2785
2 48047  87.8820 301.1765 0002160  78.6351  42.8050 13.13476153    14
1 48047C 21025F   21278.83024720  .00000767  00000+0  21017-2 0  2781
2 48047  87.8820 301.1319 0002152  78.2482  16.9330 13.13472815    15
1 48047C 21025F   21279.04627730  .00000626  00000+0  17159-2 0  2792
2 48047  87.8819 301.0886 0002154  78.1209 317.9743 13.13475423    19
1 48047C 21025F   21279.04627730  .00000626  00000+0  17160-2 0  2794
2 48047  87.8819 301.0886 0002154  78.1209 317.9743 13.13475423    19
1 48047C 21025F   21279.44633516  .00002886  00000+0  79130-2 0  2792
2 48047  87.8818 301.0085 0002138  77.9304  48.7689 13.13471584    16
1 48047C 21025F   21279.82139303  .00000035  00000+0  95034-4 0  2796
2 48047  87.8816 300.9333 0002123  77.6988  21.4550 13.13473394    13
1 48047C 21025F   21279.82139303  .00000035  00000+0  95035-4 0  2797
2 48047  87.8816 300.9333 0002123  77.6988  21.4550 13.13473394    13
1 48047C 21025F   21280.20895833 -.00004129  00000+0 -11321-1 0  2803
2 48047  87.8815 300.8557 0002112  77.6165  53.0958 13.13478031    10
1 48047C 21025F   21280.51317545  .00001506  00000+0  41297-2 0  2806
2 48047  87.8814 300.7947 0002107  77.5912  50.7965 13.13473087    12
1 48047C 21025F   21280.88059442  .00001431  00000+0  39245-2 0  2802
2 48047  87.8813 300.7210 0002093  77.3240 347.4206 13.13470987    10
1 48047C 21025F   21281.27509675 -.00002967  00000+0 -81332-2 0  2816
2 48047  87.8812 300.6419 0002082  77.1431  51.9434 13.13474444    19
1 48047C 21025F   21281.65154351 -.00002936  00000+0 -80484-2 0  2818
2 48047  87.8811 300.5664 0002073  77.2628  30.8367 13.13475401    13
1 48047C 21025F   21282.01757359  .00000290  00000+0  79544-3 0  2822
2 48047  87.8810 300.4930 0002071  76.9802 320.9081 13.13472053    11
1 48047C 21025F   21282.41699488  .00001836  00000+0  50350-2 0  2824
2 48047  87.8810 300.4128 0002056  76.9203  48.5593 13.13468028    16
1 48047C 21025F   21282.77885832 -.00001554  00000+0 -42611-2 0  2823
2 48047  87.8810 300.3402 0002043  76.9667 318.6071 13.13470223    12
1 48047C 21025F   21283.17266618 -.00004506  00000+0 -12354-1 0  2834
2 48047  87.8809 300.2612 0002037  76.8665  19.7606 13.13473599    14
1 48047C 21025F   21283.63175183 -.00002406  00000+0 -65960-2 0  2830
2 48047  87.8809 300.1691 0002026  76.7952  29.3776 13.13471402    12
1 48047C 21025F   21283.92972638  .00002222  00000+0  60920-2 0  2837
2 48047  87.8809 300.1094 0002020  76.5337 357.8096 13.13465704    10
1 48047C 21025F   21284.31525879 -.00000557  00000+0 -15264-2 0  2845
2 48047  87.8810 300.0321 0002007  76.3830  19.9073 13.13466768    17
1 48047C 21025F   21284.69864999 -.00002356  00000+0 -64596-2 0  2846
2 48047  87.8810 299.9552 0001999  76.3243  31.7896 13.13469410    18
1 48047C 21025F   21284.98829118  .00001851  00000+0  50760-2 0  2847
2 48047  87.8810 299.8971 0001999  76.0631 320.8345 13.13466336    15
1 48047C 21025F   21285.30571016 -.00000289  00000+0 -79322-3 0  2858
2 48047  87.8811 299.8335 0001984  75.9367  21.0190 13.13466189    12
1 48047C 21025F   21285.68910137 -.00001872  00000+0 -51329-2 0  2855
2 48047  87.8811 299.7566 0001978  75.8547  32.9237 13.13469132    13
1 48047C 21025F   21286.14338377 -.00003015  00000+0 -82676-2 0  2868
2 48047  87.8812 299.6656 0001970  75.6626  19.9569 13.13471194    15
1 48047C 21025F   21286.60316388 -.00000551  00000+0 -15099-2 0  2864
2 48047  87.8813 299.5735 0001960  75.4221  33.0220 13.13469879    19
1 48047C 21025F   21286.96919396  .00003099  00000+0  84974-2 0  2867
2 48047  87.8813 299.5002 0001954  74.8989 323.3296 13.13466693    12
1 48047C 21025F   21287.36230738  .00002926  00000+0  80237-2 0  2875
2 48047  87.8814 299.4214 0001941  74.6489  21.3555 13.13465744    15
1 48047C 21025F   21287.74569859 -.00000101  00000+0 -27719-3 0  2878
2 48047  87.8814 299.3447 0001931  74.3623  33.4685 13.13469711    14
1 48047C 21025F   21287.74569859 -.00000101  00000+0 -27718-3 0  2877
2 48047  87.8814 299.3447 0001931  74.3623  33.4686 13.13469711    15
1 48047C 21025F   21287.95900879  .00003457  00000+0  94793-2 0  2872
2 48047  87.8814 299.3020 0001931  74.1944 321.6966 13.13468194    13
1 48047C 21025F   21288.35281664  .00002780  00000+0  76233-2 0  2889
2 48047  87.8815 299.2231 0001917  73.9180  23.0330 13.13467853    19
1 48047C 21025F   21288.35281664  .00002780  00000+0  76233-2 0  2889
2 48047  87.8815 299.2231 0001917  73.9180  23.0331 13.13467853    10
1 48047C 21025F   21288.73620785 -.00000318  00000+0 -87167-3 0  2888
2 48047  87.8815 299.1463 0001907  73.6836  35.0964 13.13472017    13
1 48047C 21025F   21289.10571016 -.00002116  00000+0 -58001-2 0  2895
2 48047  87.8815 299.0724 0001903  73.6062 341.3661 13.13476067    15
1 48047C 21025F   21289.50299026  .00002389  00000+0  65503-2 0  2892
2 48047  87.8815 298.9928 0001890  73.4183  59.0262 13.13472411    15
1 48047C 21025F   21289.87046711  .00003163  00000+0  86710-2 0  2897
2 48047  87.8814 298.9192 0001880  72.9931 356.0809 13.13470538    16
1 48047C 21025F   21290.18788610 -.00003032  00000+0 -83134-2 0  2900
2 48047  87.8814 298.8557 0001869  72.8939  56.2391 13.13477229    13
1 48047C 21025F   21290.49280508  .00002120  00000+0  58131-2 0  2901
2 48047  87.8813 298.7946 0001864  72.9323  57.1920 13.13473681    12
1 48047C 21025F   21290.86300183  .00002609  00000+0  71525-2 0  2908
2 48047  87.8812 298.7205 0001852  72.5792   7.0300 13.13471726    16
1 48047C 21025F   21291.24778192 -.00001951  00000+0 -53500-2 0  2915
2 48047  87.8811 298.6434 0001836  72.4852  25.5225 13.13475799    11
1 48047C 21025F   21291.63053655 -.00002442  00000+0 -66939-2 0  2914
2 48047  87.8809 298.5667 0001828  72.6069  34.2263 13.13477718    10
1 48047C 21025F   21291.63053655 -.00002442  00000+0 -66940-2 0  2916
2 48047  87.8809 298.5667 0001828  72.6069  34.2263 13.13477718    10
1 48047C 21025F   21291.99656666  .00000346  00000+0  94888-3 0  2918
2 48047  87.8808 298.4934 0001824  72.3861 324.2387 13.13475485    16
1 48047C 21025F   21292.39662451  .00002319  00000+0  63564-2 0  2921
2 48047  87.8806 298.4132 0001807  72.3929  54.8362 13.13471453    10
1 48047C 21025F   21292.39662451  .00002319  00000+0  63565-2 0  2922
2 48047  87.8806 298.4132 0001807  72.3929  54.8362 13.13471453    10
1 48047C 21025F   21292.76404351 -.00000868  00000+0 -23804-2 0  2927
2 48047  87.8805 298.3395 0001790  72.4496 351.1333 13.13473368    18
1 48047C 21025F   21292.98701804 -.00000343  00000+0 -94087-3 0  2924
2 48047  87.8804 298.2948 0001795  72.4306 324.8849 13.13474646    14
1 48047C 21025F   21293.30449488 -.00002475  00000+0 -67851-2 0  2935
2 48047  87.8803 298.2312 0001779  72.4478  25.2077 13.13472848    17
1 48047C 21025F   21293.68094164 -.00003533  00000+0 -96853-2 0  2933
2 48047  87.8801 298.1557 0001771  72.6970   3.9725 13.13472958    11
1 48047C 21025F   21293.83447175  .00001197  00000+0  32830-2 0  2931
2 48047  87.8801 298.1249 0001770  72.6542   9.5721 13.13467263    14
1 48047C 21025F   21294.25271991 -.00002147  00000+0 -58872-2 0  2942
2 48047  87.8800 298.0409 0001766  72.9489 185.8324 13.13469254    17
1 48047C 21025F   21294.45212220  .00001583  00000+0  43396-2 0  2940
2 48047  87.8799 298.0009 0001755  72.9532  48.1616 13.13466998    14
1 48047C 21025F   21294.45212220  .00001583  00000+0  43396-2 0  2940
2 48047  87.8799 298.0009 0001755  72.9532  48.1617 13.13466998    15
1 48047C 21025F   21294.82093008  .00001024  00000+0  28071-2 0  2945
2 48047  87.8798 297.9269 0001739  72.8630 351.1645 13.13465340    18
1 48047C 21025F   21294.96751573  .00000702  00000+0  19240-2 0  2948
2 48047  87.8798 297.8975 0001743  72.8504 323.9064 13.13467490    16
1 48047C 21025F   21295.35715692  .00001810  00000+0  49627-2 0  2958
2 48047  87.8798 297.8193 0001727  72.9123   5.2111 13.13463932    18
1 48047C 21025F   21295.35715692  .00001810  00000+0  49627-2 0  2958
2 48047  87.8798 297.8193 0001727  72.9124   5.2110 13.13463932    18
1 48047C 21025F   21295.73435600 -.00085921  00000+0 -23568+0 0  2958
2 48047  87.8798 297.7436 0001810  73.7582 346.9044 13.13523822    13
1 48047C 21025F   21296.11427498 -.00174877  00000+0 -48041+0 0  2960
2 48047  87.8798 297.6674 0001727  71.7001 344.3947 13.13510315    14
1 48047C 21025F   21296.11427498 -.00174877  00000+0 -48041+0 0  2960
2 48047  87.8798 297.6674 0001727  71.7002 344.3946 13.13510315    14
1 48047C 21025F   21296.41780507 -.00044862  00000+0 -12337+0 0  2965
2 48047  87.8798 297.6064 0001699  74.1089 336.4339 13.13311581    19
1 48047C 21025F   21296.41780507 -.00044862  00000+0 -12337+0 0  2965
2 48047  87.8798 297.6064 0001699  74.1091 336.4337 13.13311581    10
1 48047C 21025F   21296.72272405 -.00000303  00000+0 -83434-3 0  2964
2 48047  87.8799 297.5452 0001753  73.7081 337.6438 13.13250250    16
1 48047C 21025F   21297.10472638 -.00003450  00000+0 -94895-2 0  2976
2 48047  87.8800 297.4686 0001748  73.6835 342.6289 13.13254579    15
